{
    "CCSDS_OMM_VERS": "3.0",
    "COMMENT": "GENERATED VIA SPACE-TRACK.ORG API",
    "CREATION_DATE": "2025-05-22T22:36:18",
    "ORIGINATOR": "18 SPCS",
    "OBJECT_NAME": "BEIDOU 3M1",
    "OBJECT_ID": "2017-069A",
    "CENTER_NAME": "EARTH",
    "REF_FRAME": "TEME",
    "TIME_SYSTEM": "UTC",
    "MEAN_ELEMENT_THEORY": "SGP4",
    "EPOCH": "2025-05-22T05:31:08.042880",
    "MEAN_MOTION": "1.86231143",
    "ECCENTRICITY": "0.00114750",
    "INCLINATION": "56.3482",
    "RA_OF_ASC_NODE": "75.9976",
    "ARG_OF_PERICENTER": "314.9418",
    "MEAN_ANOMALY": "44.9467",
    "EPHEMERIS_TYPE": "0",
    "CLASSIFICATION_TYPE": "U",
    "NORAD_CAT_ID": "43001",
    "ELEMENT_SET_NO": "999",
    "REV_AT_EPOCH": "5132",
    "BSTAR": "0.00000000000000",
    "MEAN_MOTION_DOT": "-0.00000017",
    "MEAN_MOTION_DDOT": "0.0000000000000",
    "SEMIMAJOR_AXIS": "27906.174",
    "PERIOD": "773.233",
    "APOAPSIS": "21560.062",
    "PERIAPSIS": "21496.017",
    "OBJECT_TYPE": "PAYLOAD",
    "RCS_SIZE": "LARGE",
    "COUNTRY_CODE": "PRC",
    "LAUNCH_DATE": "2017-11-05",
    "SITE": "XSC",
    "DECAY_DATE": null,
    "FILE": "4736316",
    "GP_ID": "288161787",
    "TLE_LINE0": "0 BEIDOU 3M1",
    "TLE_LINE1": "1 43001U 17069A   25142.22995420 -.00000017  00000-0  00000+0 0  9996",
    "TLE_LINE2": "2 43001  56.3482  75.9976 0011475 314.9418  44.9467  1.86231143 51323"
}